API VERSION: 1.2
API SOURCE: NASA/JPL Horizons API



*******************************************************************************
Ephemeris / API_USER Mon Apr 13 11:58:39 2026 Pasadena, USA      / Horizons
*******************************************************************************
Target body name: Jupiter (599)                   {source: jup365_merged}
Center body name: Sun (10)                        {source: jup365_merged}
Center-site name: BODY CENTER
*******************************************************************************
Start time      : A.D. 2025-May-19 04:59:00.0000 TDB
Stop  time      : A.D. 2025-May-21 04:59:00.0000 TDB
Step-size       : 60 minutes
*******************************************************************************
Center geodetic : 0.0, 0.0, 0.0                   {E-lon(deg),Lat(deg),Alt(km)}
Center cylindric: 0.0, 0.0, 0.0                   {E-lon(deg),Dxy(km),Dz(km)}
Center radii    : 695700.0, 695700.0, 695700.0 km {Equator_a, b, pole_c}
Output units    : AU-D
Calendar mode   : Mixed Julian/Gregorian
Output type     : GEOMETRIC cartesian states
Output format   : 3 (position, velocity, LT, range, range-rate)
Reference frame : Ecliptic of J2000.0
*******************************************************************************
            JDTDB,            Calendar Date (TDB),                      X,                      Y,                      Z,                     VX,                     VY,                     VZ,                     LT,                     RG,                     RR,
**************************************************************************************************************************************************************************************************************************************************************************
$$SOE
2460815.957638889, A.D. 2025-May-20 10:59:00.0000, -1.906144080121421E-03,  5.130223598130014E+00, -2.126808788406288E-02, -7.640366123683581E-03,  3.525880118273213E-04,  1.695266291541767E-04,  2.962995709304412E-02,  5.130268037028627E+00,  3.547209340659237E-04,
2460815.999305556, A.D. 2025-May-20 11:59:00.0000, -2.224494375240418E-03,  5.130238280435250E+00, -2.126102422648197E-02, -7.640448814521179E-03,  3.521609277234150E-04,  1.695288611881754E-04,  2.963004246132386E-02,  5.130282818088066E+00,  3.547682096687904E-04,
2460816.040972222, A.D. 2025-May-20 12:59:00.0000, -2.542848202262317E-03,  5.130252944727882E+00, -2.125396048506768E-02, -7.640535410593800E-03,  3.517233307651071E-04,  1.695306539905878E-04,  2.963012783972636E-02,  5.130297600900204E+00,  3.548049877223534E-04,
2460816.082638889, A.D. 2025-May-20 13:59:00.0000, -2.861205693041192E-03,  5.130267590561829E+00, -2.124689667796383E-02, -7.640624423951618E-03,  3.512748699578170E-04,  1.695320164747605E-04,  2.963021322567897E-02,  5.130312385019603E+00,  3.548309172949139E-04,
2460816.124305556, A.D. 2025-May-20 14:59:00.0000, -3.179566916826572E-03,  5.130282217480802E+00, -2.123983282277477E-02, -7.640714342384751E-03,  3.508154065630815E-04,  1.695329654851451E-04,  2.963029861655004E-02,  5.130327169990609E+00,  3.548458591991361E-04,
2460816.165972222, A.D. 2025-May-20 15:59:00.0000, -3.497931879857204E-03,  5.130296825027147E+00, -2.123276893624820E-02, -7.640803658368399E-03,  3.503450136267804E-04,  1.695335253647488E-04,  2.963038400969987E-02,  5.130341955356168E+00,  3.548498855337016E-04,
2460816.207638889, A.D. 2025-May-20 16:59:00.0000, -3.816300526150315E-03,  5.130311412750613E+00, -2.122570503396721E-02, -7.640890897482155E-03,  3.498639721693889E-04,  1.695337274112942E-04,  2.963046940253122E-02,  5.130356740666588E+00,  3.548432758996253E-04,
2460816.249305556, A.D. 2025-May-20 17:59:00.0000, -4.134672739461669E-03,  5.130325980216872E+00, -2.121864113008093E-02, -7.640974646153401E-03,  3.493727642526669E-04,  1.695336092331120E-04,  2.963055479253845E-02,  5.130371525488020E+00,  3.548265105052100E-04,
2460816.290972222, A.D. 2025-May-20 18:59:00.0000, -4.453048346384488E-03,  5.130340527015700E+00, -2.121157723704796E-02, -7.641053578555729E-03,  3.488720630075932E-04,  1.695332140113262E-04,  2.963064017735457E-02,  5.130386309410645E+00,  3.548002602439329E-04,
2460816.332638889, A.D. 2025-May-20 19:59:00.0000, -4.771427120547272E-03,  5.130355052768683E+00, -2.120451336542953E-02, -7.641126482386409E-03,  3.483627195480283E-04,  1.695325896702220E-04,  2.963072555479583E-02,  5.130401092056349E+00,  3.547653736690589E-04,
2460816.374305556, A.D. 2025-May-20 20:59:00.0000, -5.089808787854309E-03,  5.130369557136297E+00, -2.119744952370748E-02, -7.641192283059272E-03,  3.478457465394933E-04,  1.695317879539826E-04,  2.963081092290235E-02,  5.130415873085797E+00,  3.547228606333513E-04,
2460816.415972222, A.D. 2025-May-20 21:59:00.0000, -5.408193032690014E-03,  5.130384039824238E+00, -2.119038571814119E-02, -7.641250065614504E-03,  3.473222980965847E-04,  1.695308634067881E-04,  2.963089627997477E-02,  5.130430652204748E+00,  3.546738722658705E-04,
2460816.457638889, A.D. 2025-May-20 22:59:00.0000, -5.726579504972427E-03,  5.130398500588820E+00, -2.118332195268150E-02, -7.641299093434752E-03,  3.467936457215098E-04,  1.695298722564985E-04,  2.963098162460534E-02,  5.130445429169458E+00,  3.546196769961770E-04,
2460816.499305556, A.D. 2025-May-20 23:59:00.0000, -6.044967827903446E-03,  5.130412939241310E+00, -2.117625822892255E-02, -7.641338822786559E-03,  3.462611502713261E-04,  1.695288712121423E-04,  2.963106695570295E-02,  5.130460203791008E+00,  3.545616326107069E-04,
2460816.540972222, A.D. 2025-May-21 00:59:00.0000, -6.363357606224022E-03,  5.130427355650995E+00, -2.116919454610691E-02, -7.641368912457807E-03,  3.457262305830929E-04,  1.695279162049339E-04,  2.963115227251083E-02,  5.130474975938370E+00,  3.545011549674042E-04,
2460816.582638889, A.D. 2025-May-21 01:59:00.0000, -6.681748434767959E-03,  5.130441749746914E+00, -2.116213090118300E-02, -7.641389228593471E-03,  3.451903305666748E-04,  1.695270611350447E-04,  2.963123757461664E-02,  5.130489745540147E+00,  3.544396851757730E-04,
2460816.624305556, A.D. 2025-May-21 02:59:00.0000, -7.000139907145814E-03,  5.130456121518249E+00, -2.115506728891780E-02, -7.641399846602471E-03,  3.446548884768300E-04,  1.695263567344902E-04,  2.963132286195475E-02,  5.130504512584976E+00,  3.543786589537134E-04,
2460816.665972222, A.D. 2025-May-21 03:59:00.0000, -7.318531624526853E-03,  5.130470471013588E+00, -2.114800370204469E-02, -7.641401055177552E-03,  3.441213149972432E-04,  1.695258497264921E-04,  2.963140813480204E-02,  5.130519277120797E+00,  3.543194847988722E-04,
2460816.707638889, A.D. 2025-May-21 04:59:00.0000, -7.636923204798334E-03,  5.130484798339631E+00, -2.114094013144078E-02, -7.641393372658861E-03,  3.435909909516362E-04,  1.695255825554031E-04,  2.963149339377058E-02,  5.130534039253586E+00,  3.542635418049669E-04,
